SNUGLITE                
1 43784U 18099AC  23255.15086316  .00005794  00000+0  45565-3 0  9992
2 43784  97.5471 314.5070 0009382 165.2030 194.9471 15.01192057260712
ITASAT 1                
1 43786U 18099AE  23255.42070152  .00004891  00000+0  39387-3 0  9997
2 43786  97.5646 315.6512 0017384 195.3715 164.6983 15.00275812260729
KAZSCISAT-1             
1 43787U 18099AF  23255.14441187  .00010001  00000+0  70932-3 0  9998
2 43787  97.5484 315.5526 0008161 178.5165 181.6087 15.04932465260844
EAGLET-I                
1 43790U 18099AJ  23255.42461323  .00003772  00000+0  30994-3 0  9998
2 43790  97.5659 316.0494 0012887 195.4203 164.6630 14.99697993260452
ESEO                    
1 43792U 18099AL  23255.60827494  .00001246  00000+0  11023-3 0  9991
2 43792  97.5621 314.4237 0012195 184.4934 175.6181 14.98005419260471
CSIM-FD                 
1 43793U 18099AM  23255.42827903  .00011004  00000+0  75891-3 0  9993
2 43793  97.5701 319.1164 0015809 183.4223 176.6898 15.05878862260708
ASTROCAST 0.1           
1 43798U 18099AS  23255.13154254  .00011523  00000+0  83224-3 0  9993
2 43798  97.5773 318.0526 0012483 166.0399 194.1175 15.04177468260838
JY1SAT (JO-97)          
1 43803U 18099AX  23255.42327907  .00006857  00000+0  52808-3 0  9997
2 43803  97.5673 315.8253 0013274 158.7534 201.4244 15.01891683260786
SUOMI-100               
1 43804U 18099AY  23255.44108958  .00006869  00000+0  53339-3 0  9996
2 43804  97.5745 315.5999 0017832 172.2436 187.9068 15.01523704260785
AL-FARABI 2             
1 43805U 18099AZ  23255.40808455  .00008893  00000+0  65431-3 0  9997
2 43805  97.5519 316.6937 0013017 160.9896 199.1818 15.03543007260850
CENTAURI-1              
1 43809U 18099BD  23255.42699053  .00004578  00000+0  37120-3 0  9995
2 43809  97.5618 315.4603 0016925 191.0033 169.0823 15.00053778260445
CHOMPTT                 
1 43855U 18104G   23255.61233097  .00032596  00000+0  68416-3 0  9999
2 43855  85.0243 106.4631 0010698   0.7864 359.3405 15.45155413264059
UWE-4                   
1 43880U 18111E   23255.25200180  .00006717  00000+0  49794-3 0  9996
2 43880  97.6257 159.1096 0016104 232.7328 127.2430 15.03322933257443
ZACUBE-2                
1 43907U 18111AH  23255.62154677  .00039220  00000+0  80821-3 0  9997
2 43907  97.1226 133.3949 0010478 250.7572 109.2544 15.45749276262636
MICRODRAGON             
1 43935U 19003D   23255.55478012  .00023035  00000+0  62119-3 0  9990
2 43935  97.1012 272.0689 0012363   8.7954 351.3506 15.37726603258848
FORMOSAT 7-4            
1 44350U 19036M   23255.12418154  .00008583  00000+0  48381-3 0  9998
2 44350  23.9986 150.3520 0000447  80.4586 279.5968 15.10693836231854
METEOR-M2 2             
1 44387U 19038A   23255.52264420  .00000074  00000+0  52113-4 0  9995
2 44387  98.7850 219.2861 0002316  64.4049 295.7369 14.23804117217735
VDNH-80                 
1 44392U 19038G   23255.51608874  .00032992  00000+0  10040-2 0  9990
2 44392  97.6783 239.8648 0013282   8.2752 351.8706 15.33859752231761
D-STAR ONE (LIGHTSAT)   
1 44393U 19038H   23255.48572822  .00034725  00000+0  10240-2 0  9998
2 44393  97.6786 240.0280 0013097   8.2925 351.8531 15.34846517231882
AMGU-1 (AMURSAT)        
1 44394U 19038J   23255.52657049  .00041999  00000+0  11450-2 0  9994
2 44394  97.6757 240.6060 0012023   9.1115 351.0344 15.37273855231934
DOT-1                   
1 44399U 19038P   23255.52576000  .00017353  00000+0  68643-3 0  9990
2 44399  97.6894 235.9647 0019111  18.6998 341.4937 15.25364696231581
SOKRAT                  
1 44404U 19038U   23255.49493641  .00040968  00000+0  11380-2 0  9995
2 44404  97.6771 240.0171 0012802  10.1676 349.9824 15.36687557231899
LUCKY-7                 
1 44406U 19038W   23255.36634763  .00019976  00000+0  75865-3 0  9999
2 44406  97.6871 236.6213 0018161  10.1624 349.9977 15.26704908231615
D-STAR ONE (EXOCONNECT) 
1 44410U 19038AA  23255.53537215  .00252063  00000+0  20444-2 0  9995
2 44410  97.6601 247.4916 0003196  76.5686 283.5931 15.69976432232420
NARSSCUBE-2             
1 44415U 19022E   23255.48932648  .00043350  00000+0  65212-3 0  9996
2 44415  51.6334  64.9163 0008936 263.0782  96.9193 15.54356195229863
DUCHIFAT-3              
1 44854U 19089C   23255.46827336  .00009719  00000+0  62746-3 0  9991
2 44854  36.9608 289.0728 0008078 304.1416  55.8562 15.07756907206070
OPS-SAT                 
1 44878U 19092F   23255.51439150  .00028378  00000+0  73555-3 0  9992
2 44878  97.4723  85.6638 0008132 174.2390 185.8950 15.38956728207202
FLORIPASAT-1            
1 44885U 19093G   23255.47190394  .00004715  00000+0  53800-3 0  9990
2 44885  97.8646 335.6897 0014318 149.8040 210.4004 14.86506916201915
BY70-2                  
1 45857U 20042B   23255.51862149  .00027705  00000+0  25899-2 0  9995
2 45857  97.9226 335.9221 0008932  87.1108 273.1134 14.94056002172561
SALSAT                  
1 46495U 20068K   23255.56720961  .00005218  00000+0  33716-3 0  9995
2 46495  97.7754 204.5754 0015267 175.6666 184.4696 15.08586461162241
NETSAT-4                
1 46504U 20068U   23255.42443276  .00007470  00000+0  47909-3 0  9993
2 46504  97.7672 202.1549 0009249 225.3753 134.6721 15.08768751162059
NETSAT-3                
1 46505U 20068V   23255.46936945  .00007955  00000+0  51323-3 0  9991
2 46505  97.7654 201.9734 0008226 235.3061 124.7393 15.08535390162067
NETSAT-1                
1 46506U 20068W   23255.53398327  .00007096  00000+0  46409-3 0  9991
2 46506  97.7669 201.8803 0006599 246.7973 113.2560 15.08081468162060
NETSAT-2                
1 46507U 20068X   23255.42653860  .00007311  00000+0  47013-3 0  9998
2 46507  97.7660 201.8776 0005656 253.9008 106.1597 15.08697181162003
UVSQ-SAT                
1 47438U 21006AB  23255.38791934  .00020015  00000+0  75072-3 0  9997
2 47438  97.3760 311.3689 0010671 130.7031 229.5137 15.27213739145943
SOMP2B                  
1 47445U 21006AJ  23255.15998667  .00019283  00000+0  74272-3 0  9998
2 47445  97.3729 310.2524 0010492 135.8892 224.3185 15.26341883145873
CAS-5A                  
1 54684U 22167C   23255.58738441  .00015542  00000+0  80552-3 0  9991
2 54684  97.5732  32.7518 0013225  37.3950 322.8200 15.16191084 41916
